H1 CPF  1  DLR 2022 08 04 10  7162 technosat            
H2  1704205 6203    42829 2022 08 04 00 00 00 2022 08 11 00 00 00    60 1 1  0 0 0
H9
10 0 59801  36000.000000  0       4252411.891      -3689055.750       4118301.198
10 0 59801  36060.000000  0       3980270.174      -3579897.627       4469971.931
10 0 59801  36120.000000  0       3692428.921      -3453240.153       4802716.020
10 0 59801  36180.000000  0       3390249.526      -3309484.363       5115124.552
10 0 59801  36240.000000  0       3075149.781      -3149115.313       5405874.672
10 0 59801  36300.000000  0       2748597.147      -2972700.444       5673735.127
10 0 59801  36360.000000  0       2412101.811      -2780887.548       5917571.357
10 0 59801  36420.000000  0       2067209.628      -2574402.374       6136350.150
10 0 59801  36480.000000  0       1715494.987      -2354045.861       6329143.865
10 0 59801  36540.000000  0       1358553.615      -2120691.033       6495134.238
10 0 59801  36600.000000  0        997995.304      -1875279.509       6633615.757
10 0 59801  36660.000000  0        635436.664      -1618817.703       6743998.525
10 0 59801  36720.000000  0        272493.917      -1352372.721       6825810.691
10 0 59801  36780.000000  0        -89224.288      -1077067.912       6878700.440
10 0 59801  36840.000000  0       -448123.954       -794078.162       6902437.429
10 0 59801  36900.000000  0       -802632.703       -504624.960       6896913.843
10 0 59801  36960.000000  0      -1151206.665       -209971.155       6862144.974
10 0 59801  37020.000000  0      -1492337.196         88584.507       6798269.266
10 0 59801  37080.000000  0      -1824557.402        389713.069       6705547.924
10 0 59801  37140.000000  0      -2146448.485        692061.236       6584364.019
10 0 59801  37200.000000  0      -2456645.882        994257.421       6435221.106
10 0 59801  37260.000000  0      -2753845.124       1294917.942       6258741.355
10 0 59801  37320.000000  0      -3036807.440       1592653.354       6055663.229
10 0 59801  37380.000000  0      -3304365.094       1886074.884       5826838.679
10 0 59801  37440.000000  0      -3555426.439       2173800.973       5573229.850
10 0 59801  37500.000000  0      -3788980.593       2454463.891       5295905.258
10 0 59801  37560.000000  0      -4004101.746       2726716.345       4996035.469
10 0 59801  37620.000000  0      -4199953.077       2989238.053       4674888.354
10 0 59801  37680.000000  0      -4375790.325       3240742.285       4333823.877
10 0 59801  37740.000000  0      -4530964.852       3479982.294       3974288.396
10 0 59801  37800.000000  0      -4664926.284       3705757.659       3597808.614
10 0 59801  37860.000000  0      -4777224.653       3916920.477       3205985.042
10 0 59801  37920.000000  0      -4867512.039       4112381.337       2800485.195
10 0 59801  37980.000000  0      -4935543.788       4291115.146       2383036.399
10 0 59801  38040.000000  0      -4981179.157       4452166.658       1955418.224
10 0 59801  38100.000000  0      -5004381.412       4594655.655       1519454.640
10 0 59801  38160.000000  0      -5005217.415       4717781.737       1077005.944
10 0 59801  38220.000000  0      -4983856.717       4820828.725        629960.544
10 0 59801  38280.000000  0      -4940570.138       4903168.733        180226.616
10 0 59801  38340.000000  0      -4875727.870       4964265.818       -270276.409
10 0 59801  38400.000000  0      -4789797.071       5003679.172       -719626.442
10 0 59801  38460.000000  0      -4683338.859       5021065.847      -1165907.439
10 0 59801  38520.000000  0      -4557004.713       5016182.840      -1607217.882
10 0 59801  38580.000000  0      -4411532.712       4988888.803      -2041679.103
10 0 59801  38640.000000  0      -4247743.308       4939145.187      -2467443.674
10 0 59801  38700.000000  0      -4066534.602       4867016.814      -2882703.510
10 0 59801  38760.000000  0      -3868877.305       4772671.965      -3285697.719
10 0 59801  38820.000000  0      -3655809.377       4656381.919      -3674720.148
10 0 59801  38880.000000  0      -3428430.426       4518520.030      -4048126.593
10 0 59801  38940.000000  0      -3187895.869       4359560.300      -4404341.721
10 0 59801  39000.000000  0      -2935410.888       4180075.455      -4741865.541
10 0 59801  39060.000000  0      -2672224.315       3980734.673      -5059279.500
10 0 59801  39120.000000  0      -2399622.358       3762300.849      -5355252.275
10 0 59801  39180.000000  0      -2118922.206       3525627.397      -5628545.140
10 0 59801  39240.000000  0      -1831465.578       3271654.628      -5878016.864
10 0 59801  39300.000000  0      -1538612.233       3001405.735      -6102628.167
10 0 59801  39360.000000  0      -1241733.506       2715982.415      -6301445.682
10 0 59801  39420.000000  0       -942205.892       2416560.167      -6473645.402
10 0 59801  39480.000000  0       -641404.734       2104383.371      -6618515.708
10 0 59801  39540.000000  0       -340697.968       1780760.016      -6735459.984
10 0 59801  39600.000000  0        -41440.048       1447056.125      -6823998.681
10 0 59801  39660.000000  0        255033.978       1104690.045      -6883771.021
10 0 59801  39720.000000  0        547414.320        755126.483      -6914536.274
10 0 59801  39780.000000  0        834422.152        399870.298      -6916174.559
10 0 59801  39840.000000  0       1114815.078         40460.059      -6888687.101
10 0 59801  39900.000000  0       1387392.341       -321538.497      -6832196.026
10 0 59801  39960.000000  0       1650999.803       -684539.116      -6746943.731
10 0 59801  40020.000000  0       1904534.655      -1046941.789      -6633291.910
10 0 59801  40080.000000  0       2146949.963      -1407139.665      -6491720.103
10 0 59801  40140.000000  0       2377258.910      -1763525.985      -6322823.737
10 0 59801  40200.000000  0       2594538.695      -2114501.036      -6127311.827
10 0 59801  40260.000000  0       2797934.204      -2458479.213      -5906004.337
10 0 59801  40320.000000  0       2986661.422      -2793896.168      -5659829.032
10 0 59801  40380.000000  0       3160010.512      -3119215.944      -5389817.805
10 0 59801  40440.000000  0       3317348.500      -3432937.991      -5097102.511
10 0 59801  40500.000000  0       3458121.554      -3733604.025      -4782910.426
10 0 59801  40560.000000  0       3581856.915      -4019804.756      -4448559.394
10 0 59801  40620.000000  0       3688164.515      -4290186.522      -4095452.620
10 0 59801  40680.000000  0       3776738.218      -4543457.766      -3725073.041
10 0 59801  40740.000000  0       3847356.709      -4778395.297      -3338977.350
10 0 59801  40800.000000  0       3899884.008      -4993850.354      -2938789.650
10 0 59801  40860.000000  0       3934269.521      -5188754.416      -2526194.722
10 0 59801  40920.000000  0       3950547.652      -5362124.619      -2102930.954
10 0 59801  40980.000000  0       3948837.024      -5513068.746      -1670783.079
10 0 59801  41040.000000  0       3929339.371      -5640789.955      -1231574.684
10 0 59801  41100.000000  0       3892337.971      -5744591.074       -787160.420
10 0 59801  41160.000000  0       3838195.650      -5823878.394       -339418.069
10 0 59801  41220.000000  0       3767352.404      -5878165.003        109759.485
10 0 59801  41280.000000  0       3680322.658      -5907073.646        558472.345
10 0 59801  41340.000000  0       3577692.227      -5910339.093       1004821.783
10 0 59801  41400.000000  0       3460114.920      -5887809.983       1446918.503
10 0 59801  41460.000000  0       3328308.728      -5839450.013       1882890.872
10 0 59801  41520.000000  0       3183051.727      -5765338.572       2310892.913
10 0 59801  41580.000000  0       3025177.769      -5665670.929       2729112.233
10 0 59801  41640.000000  0       2855571.860      -5540757.848       3135777.793
10 0 59801  41700.000000  0       2675165.378      -5391024.642       3529167.467
10 0 59801  41760.000000  0       2484931.142      -5217009.695       3907615.381
10 0 59801  41820.000000  0       2285878.276      -5019362.495       4269519.028
10 0 59801  41880.000000  0       2079046.901      -4798841.061       4613346.074
10 0 59801  41940.000000  0       1865502.795      -4556308.882       4937640.745
10 0 59801  42000.000000  0       1646332.030      -4292731.470       5241029.967
10 0 59801  42060.000000  0       1422635.463      -4009172.346       5522229.193
10 0 59801  42120.000000  0       1195523.197      -3706788.552       5780047.719
10 0 59801  42180.000000  0        966109.099      -3386825.774       6013393.548
10 0 59801  42240.000000  0        735505.381      -3050613.114       6221277.821
10 0 59801  42300.000000  0        504817.264      -2699557.521       6402818.862
10 0 59801  42360.000000  0        275137.722      -2335137.833       6557245.772
10 0 59801  42420.000000  0         47542.381      -1958898.552       6683901.530
10 0 59801  42480.000000  0       -176915.457      -1572443.386       6782245.752
10 0 59801  42540.000000  0       -397209.680      -1177428.392       6851857.017
10 0 59801  42600.000000  0       -612345.999       -775554.875       6892434.622
10 0 59801  42660.000000  0       -821366.424       -368562.106       6903799.899
10 0 59801  42720.000000  0      -1023353.548         41780.170       6885897.040
10 0 59801  42780.000000  0      -1217434.587        453679.383       6838793.445
10 0 59801  42840.000000  0      -1402785.158        865327.951       6762679.570
10 0 59801  42900.000000  0      -1578632.818       1274911.154       6657868.307
10 0 59801  42960.000000  0      -1744260.351       1680615.133       6524793.908
10 0 59801  43020.000000  0      -1899008.769       2080634.933       6364010.375
10 0 59801  43080.000000  0      -2042279.999       2473182.577       6176189.401
10 0 59801  43140.000000  0      -2173539.285       2856495.169       5962117.797
99
